CCSDS_OMM_VERS = 2.0
CREATION_DATE  = 
ORIGINATOR     = 

OBJECT_NAME    = STARLINK-36673
OBJECT_ID      = 2026-022N
CENTER_NAME    = EARTH
REF_FRAME      = TEME
TIME_SYSTEM    = UTC
MEAN_ELEMENT_THEORY = SGP/SGP4

EPOCH          = 2026-02-21T21:26:57.300864
MEAN_MOTION    = 15.75192854
ECCENTRICITY   = .00013354
INCLINATION    = 97.2849
RA_OF_ASC_NODE = 86.1106
ARG_OF_PERICENTER = 105.4315
MEAN_ANOMALY   = 254.7098

EPHEMERIS_TYPE = 0
CLASSIFICATION_TYPE = U
NORAD_CAT_ID   = 67660
ELEMENT_SET_NO = 999
REV_AT_EPOCH   = 306
BSTAR          = .53945275E-3
MEAN_MOTION_DOT = .81111E-3
MEAN_MOTION_DDOT = 0

CCSDS_OMM_VERS = 2.0
CREATION_DATE  = 
ORIGINATOR     = 

OBJECT_NAME    = STARLINK-36674
OBJECT_ID      = 2026-022P
CENTER_NAME    = EARTH
REF_FRAME      = TEME
TIME_SYSTEM    = UTC
MEAN_ELEMENT_THEORY = SGP/SGP4

EPOCH          = 2026-02-21T19:53:26.479680
MEAN_MOTION    = 15.75212603
ECCENTRICITY   = .0001122
INCLINATION    = 97.2848
RA_OF_ASC_NODE = 86.0464
ARG_OF_PERICENTER = 92.7255
MEAN_ANOMALY   = 267.4139

EPHEMERIS_TYPE = 0
CLASSIFICATION_TYPE = U
NORAD_CAT_ID   = 67661
ELEMENT_SET_NO = 999
REV_AT_EPOCH   = 305
BSTAR          = .99880279E-3
MEAN_MOTION_DOT = .15167E-2
MEAN_MOTION_DDOT = 0

CCSDS_OMM_VERS = 2.0
CREATION_DATE  = 
ORIGINATOR     = 

OBJECT_NAME    = STARLINK-36700
OBJECT_ID      = 2026-022Q
CENTER_NAME    = EARTH
REF_FRAME      = TEME
TIME_SYSTEM    = UTC
MEAN_ELEMENT_THEORY = SGP/SGP4

EPOCH          = 2026-02-21T21:21:52.427232
MEAN_MOTION    = 15.75208947
ECCENTRICITY   = .00014534
INCLINATION    = 97.2850
RA_OF_ASC_NODE = 86.1157
ARG_OF_PERICENTER = 88.7299
MEAN_ANOMALY   = 271.4133

EPHEMERIS_TYPE = 0
CLASSIFICATION_TYPE = U
NORAD_CAT_ID   = 67662
ELEMENT_SET_NO = 999
REV_AT_EPOCH   = 306
BSTAR          = .8372291E-3
MEAN_MOTION_DOT = .126722E-2
MEAN_MOTION_DDOT = 0

CCSDS_OMM_VERS = 2.0
CREATION_DATE  = 
ORIGINATOR     = 

OBJECT_NAME    = STARLINK-36675
OBJECT_ID      = 2026-022R
CENTER_NAME    = EARTH
REF_FRAME      = TEME
TIME_SYSTEM    = UTC
MEAN_ELEMENT_THEORY = SGP/SGP4

EPOCH          = 2026-02-21T21:23:54.371328
MEAN_MOTION    = 15.75222062
ECCENTRICITY   = .00014223
INCLINATION    = 97.2847
RA_OF_ASC_NODE = 86.1140
ARG_OF_PERICENTER = 82.2098
MEAN_ANOMALY   = 277.9329

EPHEMERIS_TYPE = 0
CLASSIFICATION_TYPE = U
NORAD_CAT_ID   = 67663
ELEMENT_SET_NO = 999
REV_AT_EPOCH   = 306
BSTAR          = .936413E-3
MEAN_MOTION_DOT = .142086E-2
MEAN_MOTION_DDOT = 0

CCSDS_OMM_VERS = 2.0
CREATION_DATE  = 
ORIGINATOR     = 

OBJECT_NAME    = STARLINK-36404
OBJECT_ID      = 2026-022S
CENTER_NAME    = EARTH
REF_FRAME      = TEME
TIME_SYSTEM    = UTC
MEAN_ELEMENT_THEORY = SGP/SGP4

EPOCH          = 2026-02-21T21:19:20.035776
MEAN_MOTION    = 15.75197450
ECCENTRICITY   = .00013865
INCLINATION    = 97.2852
RA_OF_ASC_NODE = 86.1160
ARG_OF_PERICENTER = 90.0727
MEAN_ANOMALY   = 270.0697

EPHEMERIS_TYPE = 0
CLASSIFICATION_TYPE = U
NORAD_CAT_ID   = 67664
ELEMENT_SET_NO = 999
REV_AT_EPOCH   = 306
BSTAR          = .64769518E-3
MEAN_MOTION_DOT = .97621E-3
MEAN_MOTION_DDOT = 0

CCSDS_OMM_VERS = 2.0
CREATION_DATE  = 
ORIGINATOR     = 

OBJECT_NAME    = STARLINK-36399
OBJECT_ID      = 2026-022T
CENTER_NAME    = EARTH
REF_FRAME      = TEME
TIME_SYSTEM    = UTC
MEAN_ELEMENT_THEORY = SGP/SGP4

EPOCH          = 2026-02-21T21:18:19.003680
MEAN_MOTION    = 15.75177015
ECCENTRICITY   = .00016479
INCLINATION    = 97.2853
RA_OF_ASC_NODE = 86.1180
ARG_OF_PERICENTER = 123.2288
MEAN_ANOMALY   = 236.9136

EPHEMERIS_TYPE = 0
CLASSIFICATION_TYPE = U
NORAD_CAT_ID   = 67665
ELEMENT_SET_NO = 999
REV_AT_EPOCH   = 306
BSTAR          = .50303376E-3
MEAN_MOTION_DOT = .75526E-3
MEAN_MOTION_DDOT = 0

CCSDS_OMM_VERS = 2.0
CREATION_DATE  = 
ORIGINATOR     = 

OBJECT_NAME    = STARLINK-36365
OBJECT_ID      = 2026-022U
CENTER_NAME    = EARTH
REF_FRAME      = TEME
TIME_SYSTEM    = UTC
MEAN_ELEMENT_THEORY = SGP/SGP4

EPOCH          = 2026-02-21T21:16:16.951584
MEAN_MOTION    = 15.75229672
ECCENTRICITY   = .0001282
INCLINATION    = 97.2849
RA_OF_ASC_NODE = 86.1202
ARG_OF_PERICENTER = 96.0654
MEAN_ANOMALY   = 264.0757

EPHEMERIS_TYPE = 0
CLASSIFICATION_TYPE = U
NORAD_CAT_ID   = 67666
ELEMENT_SET_NO = 999
REV_AT_EPOCH   = 306
BSTAR          = .10240667E-2
MEAN_MOTION_DOT = .155699E-2
MEAN_MOTION_DDOT = 0

CCSDS_OMM_VERS = 2.0
CREATION_DATE  = 
ORIGINATOR     = 

OBJECT_NAME    = STARLINK-36622
OBJECT_ID      = 2026-022V
CENTER_NAME    = EARTH
REF_FRAME      = TEME
TIME_SYSTEM    = UTC
MEAN_ELEMENT_THEORY = SGP/SGP4

EPOCH          = 2026-02-21T19:42:15.974208
MEAN_MOTION    = 15.75194111
ECCENTRICITY   = .00016817
INCLINATION    = 97.2846
RA_OF_ASC_NODE = 86.0556
ARG_OF_PERICENTER = 67.6831
MEAN_ANOMALY   = 292.4612

EPHEMERIS_TYPE = 0
CLASSIFICATION_TYPE = U
NORAD_CAT_ID   = 67667
ELEMENT_SET_NO = 999
REV_AT_EPOCH   = 305
BSTAR          = .67312415E-3
MEAN_MOTION_DOT = .101492E-2
MEAN_MOTION_DDOT = 0

CCSDS_OMM_VERS = 2.0
CREATION_DATE  = 
ORIGINATOR     = 

OBJECT_NAME    = STARLINK-36625
OBJECT_ID      = 2026-022W
CENTER_NAME    = EARTH
REF_FRAME      = TEME
TIME_SYSTEM    = UTC
MEAN_ELEMENT_THEORY = SGP/SGP4

EPOCH          = 2026-02-21T21:11:42.514944
MEAN_MOTION    = 15.75233901
ECCENTRICITY   = .0001437
INCLINATION    = 97.2846
RA_OF_ASC_NODE = 86.1241
ARG_OF_PERICENTER = 82.0996
MEAN_ANOMALY   = 278.0433

EPHEMERIS_TYPE = 0
CLASSIFICATION_TYPE = U
NORAD_CAT_ID   = 67668
ELEMENT_SET_NO = 999
REV_AT_EPOCH   = 306
BSTAR          = .10688456E-2
MEAN_MOTION_DOT = .162677E-2
MEAN_MOTION_DDOT = 0

CCSDS_OMM_VERS = 2.0
CREATION_DATE  = 
ORIGINATOR     = 

OBJECT_NAME    = STARLINK-36639
OBJECT_ID      = 2026-022X
CENTER_NAME    = EARTH
REF_FRAME      = TEME
TIME_SYSTEM    = UTC
MEAN_ELEMENT_THEORY = SGP/SGP4

EPOCH          = 2026-02-21T21:09:10.024992
MEAN_MOTION    = 15.75239828
ECCENTRICITY   = .00014172
INCLINATION    = 97.2847
RA_OF_ASC_NODE = 86.1267
ARG_OF_PERICENTER = 96.6768
MEAN_ANOMALY   = 263.4658

EPHEMERIS_TYPE = 0
CLASSIFICATION_TYPE = U
NORAD_CAT_ID   = 67669
ELEMENT_SET_NO = 999
REV_AT_EPOCH   = 306
BSTAR          = .11354636E-2
MEAN_MOTION_DOT = .17308E-2
MEAN_MOTION_DDOT = 0

CCSDS_OMM_VERS = 2.0
CREATION_DATE  = 
ORIGINATOR     = 

OBJECT_NAME    = STARLINK-36596
OBJECT_ID      = 2026-022Y
CENTER_NAME    = EARTH
REF_FRAME      = TEME
TIME_SYSTEM    = UTC
MEAN_ELEMENT_THEORY = SGP/SGP4

EPOCH          = 2026-02-21T21:06:37.630080
MEAN_MOTION    = 15.75219680
ECCENTRICITY   = .00012938
INCLINATION    = 97.2846
RA_OF_ASC_NODE = 86.1286
ARG_OF_PERICENTER = 103.6725
MEAN_ANOMALY   = 256.4685

EPHEMERIS_TYPE = 0
CLASSIFICATION_TYPE = U
NORAD_CAT_ID   = 67670
ELEMENT_SET_NO = 999
REV_AT_EPOCH   = 306
BSTAR          = .89532922E-3
MEAN_MOTION_DOT = .135731E-2
MEAN_MOTION_DDOT = 0

CCSDS_OMM_VERS = 2.0
CREATION_DATE  = 
ORIGINATOR     = 

OBJECT_NAME    = STARLINK-36297
OBJECT_ID      = 2026-022Z
CENTER_NAME    = EARTH
REF_FRAME      = TEME
TIME_SYSTEM    = UTC
MEAN_ELEMENT_THEORY = SGP/SGP4

EPOCH          = 2026-02-21T21:03:34.785216
MEAN_MOTION    = 15.75192211
ECCENTRICITY   = .00014038
INCLINATION    = 97.2851
RA_OF_ASC_NODE = 86.1319
ARG_OF_PERICENTER = 90.7102
MEAN_ANOMALY   = 269.4324

EPHEMERIS_TYPE = 0
CLASSIFICATION_TYPE = U
NORAD_CAT_ID   = 67671
ELEMENT_SET_NO = 999
REV_AT_EPOCH   = 306
BSTAR          = .49367769E-3
MEAN_MOTION_DOT = .74155E-3
MEAN_MOTION_DDOT = 0

