STARLINK-36673          
1 67660U 26022N   26052.89371876  .00081111  00000+0  53945-3 0  9991
2 67660  97.2849  86.1106 0001335 105.4315 254.7098 15.75192854  3060
STARLINK-36674          
1 67661U 26022P   26052.82877870  .00151670  00000+0  99880-3 0  9996
2 67661  97.2848  86.0464 0001122  92.7255 267.4139 15.75212603  3052
STARLINK-36700          
1 67662U 26022Q   26052.89019013  .00126722  00000+0  83723-3 0  9990
2 67662  97.2850  86.1157 0001453  88.7299 271.4133 15.75208947  3062
STARLINK-36675          
1 67663U 26022R   26052.89160152  .00142086  00000+0  93641-3 0  9993
2 67663  97.2847  86.1140 0001422  82.2098 277.9329 15.75222062  3065
STARLINK-36404          
1 67664U 26022S   26052.88842634  .00097621  00000+0  64770-3 0  9990
2 67664  97.2852  86.1160 0001386  90.0727 270.0697 15.75197450  3063
STARLINK-36399          
1 67665U 26022T   26052.88771995  .00075526  00000+0  50303-3 0  9999
2 67665  97.2853  86.1180 0001647 123.2288 236.9136 15.75177015  3062
STARLINK-36365          
1 67666U 26022U   26052.88630731  .00155699  00000+0  10241-2 0  9998
2 67666  97.2849  86.1202 0001282  96.0654 264.0757 15.75229672  3060
STARLINK-36622          
1 67667U 26022V   26052.82101822  .00101492  00000+0  67312-3 0  9991
2 67667  97.2846  86.0556 0001681  67.6831 292.4612 15.75194111  3056
STARLINK-36625          
1 67668U 26022W   26052.88313096  .00162677  00000+0  10688-2 0  9991
2 67668  97.2846  86.1241 0001437  82.0996 278.0433 15.75233901  3064
STARLINK-36639          
1 67669U 26022X   26052.88136603  .00173080  00000+0  11355-2 0  9991
2 67669  97.2847  86.1267 0001417  96.6768 263.4658 15.75239828  3061
STARLINK-36596          
1 67670U 26022Y   26052.87960220  .00135731  00000+0  89533-3 0  9997
2 67670  97.2846  86.1286 0001293 103.6725 256.4685 15.75219680  3063
STARLINK-36297          
1 67671U 26022Z   26052.87748594  .00074155  00000+0  49368-3 0  9990
2 67671  97.2851  86.1319 0001403  90.7102 269.4324 15.75192211  3069
